LANDSAT 9               
1 49260U 21088A   23269.72486757  .00000837  00000+0  19572-3 0  9992
2 49260  98.2209 338.3597 0001405  90.4381 269.6978 14.57127974106175
